{"fetched_at":"2026-07-07T07:58:14.001Z","source":"https://celestrak.org/NORAD/elements/gp.php?GROUP=spire&FORMAT=JSON","constellation":"spire","records":[{"OBJECT_NAME":"LEMUR-2-VALHALLA","OBJECT_ID":"2024-022B","EPOCH":"2026-07-06T13:38:55.807008","CLASSIFICATION_TYPE":"U","MEAN_MOTION":15.40297609,"ECCENTRICITY":0.0010098,"INCLINATION":97.4092,"RA_OF_ASC_NODE":37.7991,"ARG_OF_PERICENTER":52.3792,"MEAN_ANOMALY":307.8369,"EPHEMERIS_TYPE":0,"NORAD_CAT_ID":58900,"ELEMENT_SET_NO":999,"REV_AT_EPOCH":13525,"BSTAR":0.00033871,"MEAN_MOTION_DOT":0.00013592,"MEAN_MOTION_DDOT":0},{"OBJECT_NAME":"LEMUR-2-CAEL","OBJECT_ID":"2024-022E","EPOCH":"2026-07-06T13:29:07.988928","CLASSIFICATION_TYPE":"U","MEAN_MOTION":15.41646096,"ECCENTRICITY":0.0008065,"INCLINATION":97.4076,"RA_OF_ASC_NODE":38.7626,"ARG_OF_PERICENTER":38.7751,"MEAN_ANOMALY":321.4074,"EPHEMERIS_TYPE":0,"NORAD_CAT_ID":58903,"ELEMENT_SET_NO":999,"REV_AT_EPOCH":13532,"BSTAR":0.00035485,"MEAN_MOTION_DOT":0.00014888,"MEAN_MOTION_DDOT":0},{"OBJECT_NAME":"LEMUR-2-JOHNNYTRUONG","OBJECT_ID":"2024-043BA","EPOCH":"2026-07-06T09:05:40.503264","CLASSIFICATION_TYPE":"U","MEAN_MOTION":15.62025124,"ECCENTRICITY":0.00044471,"INCLINATION":97.5393,"RA_OF_ASC_NODE":340.2928,"ARG_OF_PERICENTER":119.3476,"MEAN_ANOMALY":240.8226,"EPHEMERIS_TYPE":0,"NORAD_CAT_ID":59146,"ELEMENT_SET_NO":999,"REV_AT_EPOCH":13103,"BSTAR":0.00049242157,"MEAN_MOTION_DOT":0.00043037,"MEAN_MOTION_DDOT":0},{"OBJECT_NAME":"LEMUR-2-TOMATOKECHUP","OBJECT_ID":"2024-149D","EPOCH":"2026-07-06T17:07:24.161376","CLASSIFICATION_TYPE":"U","MEAN_MOTION":15.36460405,"ECCENTRICITY":0.0002908,"INCLINATION":97.3789,"RA_OF_ASC_NODE":269.8148,"ARG_OF_PERICENTER":137.9028,"MEAN_ANOMALY":222.244,"EPHEMERIS_TYPE":0,"NORAD_CAT_ID":60471,"ELEMENT_SET_NO":999,"REV_AT_EPOCH":10516,"BSTAR":0.000255,"MEAN_MOTION_DOT":0.00008991,"MEAN_MOTION_DDOT":0},{"OBJECT_NAME":"LEMUR-2-STELLA","OBJECT_ID":"2024-149BT","EPOCH":"2026-07-06T16:05:49.580736","CLASSIFICATION_TYPE":"U","MEAN_MOTION":15.12250312,"ECCENTRICITY":0.000118,"INCLINATION":97.6726,"RA_OF_ASC_NODE":270.2156,"ARG_OF_PERICENTER":108.9246,"MEAN_ANOMALY":251.2112,"EPHEMERIS_TYPE":0,"NORAD_CAT_ID":60533,"ELEMENT_SET_NO":999,"REV_AT_EPOCH":10344,"BSTAR":0.00050034,"MEAN_MOTION_DOT":0.00008588,"MEAN_MOTION_DDOT":0},{"OBJECT_NAME":"LEMUR-2-MARHISYAM","OBJECT_ID":"2024-149BW","EPOCH":"2026-07-06T04:40:43.214304","CLASSIFICATION_TYPE":"U","MEAN_MOTION":15.11655906,"ECCENTRICITY":0.00028719,"INCLINATION":97.687,"RA_OF_ASC_NODE":270.2058,"ARG_OF_PERICENTER":83.2434,"MEAN_ANOMALY":276.9123,"EPHEMERIS_TYPE":0,"NORAD_CAT_ID":60536,"ELEMENT_SET_NO":999,"REV_AT_EPOCH":10335,"BSTAR":0.0006311825,"MEAN_MOTION_DOT":0.00010677,"MEAN_MOTION_DDOT":0},{"OBJECT_NAME":"LEMUR-2-AHMED-ASRAR","OBJECT_ID":"2024-149DN","EPOCH":"2026-07-06T11:24:00.928800","CLASSIFICATION_TYPE":"U","MEAN_MOTION":15.13174842,"ECCENTRICITY":0.000048,"INCLINATION":97.6996,"RA_OF_ASC_NODE":272.6559,"ARG_OF_PERICENTER":267.0246,"MEAN_ANOMALY":93.093,"EPHEMERIS_TYPE":0,"NORAD_CAT_ID":60576,"ELEMENT_SET_NO":999,"REV_AT_EPOCH":10348,"BSTAR":0.00053572,"MEAN_MOTION_DOT":0.00009441,"MEAN_MOTION_DDOT":0},{"OBJECT_NAME":"LEMUR-2-LLOYD","OBJECT_ID":"2024-149DP","EPOCH":"2026-07-06T17:32:43.508832","CLASSIFICATION_TYPE":"U","MEAN_MOTION":15.09641264,"ECCENTRICITY":0.0004987,"INCLINATION":97.6735,"RA_OF_ASC_NODE":268.8748,"ARG_OF_PERICENTER":92.1025,"MEAN_ANOMALY":268.0775,"EPHEMERIS_TYPE":0,"NORAD_CAT_ID":60577,"ELEMENT_SET_NO":999,"REV_AT_EPOCH":10334,"BSTAR":0.00044313,"MEAN_MOTION_DOT":0.00007068,"MEAN_MOTION_DDOT":0},{"OBJECT_NAME":"LEMUR-2-SQUIRRELCOMM","OBJECT_ID":"2024-149DQ","EPOCH":"2026-07-06T16:57:55.016064","CLASSIFICATION_TYPE":"U","MEAN_MOTION":15.07387058,"ECCENTRICITY":0.0004878,"INCLINATION":97.6704,"RA_OF_ASC_NODE":268.5586,"ARG_OF_PERICENTER":358.1093,"MEAN_ANOMALY":2.0115,"EPHEMERIS_TYPE":0,"NORAD_CAT_ID":60578,"ELEMENT_SET_NO":999,"REV_AT_EPOCH":10334,"BSTAR":0.0003848,"MEAN_MOTION_DOT":0.00005761,"MEAN_MOTION_DDOT":0},{"OBJECT_NAME":"LEMUR-2-SIERRINI","OBJECT_ID":"2024-149DR","EPOCH":"2026-07-06T05:20:00.080160","CLASSIFICATION_TYPE":"U","MEAN_MOTION":15.11385219,"ECCENTRICITY":0.00066003,"INCLINATION":97.6837,"RA_OF_ASC_NODE":269.9031,"ARG_OF_PERICENTER":113.2698,"MEAN_ANOMALY":246.9227,"EPHEMERIS_TYPE":0,"NORAD_CAT_ID":60579,"ELEMENT_SET_NO":999,"REV_AT_EPOCH":10333,"BSTAR":0.00069226988,"MEAN_MOTION_DOT":0.00011635,"MEAN_MOTION_DDOT":0},{"OBJECT_NAME":"LEMUR-2-WILSON","OBJECT_ID":"2025-009CP","EPOCH":"2026-07-06T16:52:29.644896","CLASSIFICATION_TYPE":"U","MEAN_MOTION":14.95256068,"ECCENTRICITY":0.0002622,"INCLINATION":97.702,"RA_OF_ASC_NODE":265.8257,"ARG_OF_PERICENTER":7.2206,"MEAN_ANOMALY":352.9052,"EPHEMERIS_TYPE":0,"NORAD_CAT_ID":62694,"ELEMENT_SET_NO":999,"REV_AT_EPOCH":8027,"BSTAR":0.00026793,"MEAN_MOTION_DOT":0.00002892,"MEAN_MOTION_DDOT":0},{"OBJECT_NAME":"LEMUR-2-STAR-FOX","OBJECT_ID":"2025-009CR","EPOCH":"2026-07-06T14:29:58.660224","CLASSIFICATION_TYPE":"U","MEAN_MOTION":15.02774699,"ECCENTRICITY":0.0003481,"INCLINATION":97.6928,"RA_OF_ASC_NODE":269.0749,"ARG_OF_PERICENTER":70.943,"MEAN_ANOMALY":289.2172,"EPHEMERIS_TYPE":0,"NORAD_CAT_ID":62696,"ELEMENT_SET_NO":999,"REV_AT_EPOCH":8047,"BSTAR":0.00042526,"MEAN_MOTION_DOT":0.00005629,"MEAN_MOTION_DDOT":0},{"OBJECT_NAME":"LEMUR-2-ARIANNA","OBJECT_ID":"2025-009CU","EPOCH":"2026-07-06T04:52:28.437024","CLASSIFICATION_TYPE":"U","MEAN_MOTION":15.02770802,"ECCENTRICITY":0.00038727,"INCLINATION":97.6866,"RA_OF_ASC_NODE":268.4362,"ARG_OF_PERICENTER":76.76,"MEAN_ANOMALY":283.4057,"EPHEMERIS_TYPE":0,"NORAD_CAT_ID":62699,"ELEMENT_SET_NO":999,"REV_AT_EPOCH":8041,"BSTAR":0.00053415395,"MEAN_MOTION_DOT":0.00007087,"MEAN_MOTION_DDOT":0},{"OBJECT_NAME":"LEMUR-2-ALISIA","OBJECT_ID":"2025-009DB","EPOCH":"2026-07-06T17:02:21.140160","CLASSIFICATION_TYPE":"U","MEAN_MOTION":15.03086294,"ECCENTRICITY":0.0003374,"INCLINATION":97.695,"RA_OF_ASC_NODE":269.7475,"ARG_OF_PERICENTER":156.8621,"MEAN_ANOMALY":203.2757,"EPHEMERIS_TYPE":0,"NORAD_CAT_ID":62706,"ELEMENT_SET_NO":999,"REV_AT_EPOCH":10309,"BSTAR":0.00054254,"MEAN_MOTION_DOT":0.00007259,"MEAN_MOTION_DDOT":0},{"OBJECT_NAME":"LEMUR-2-ROUNDTRIPPER","OBJECT_ID":"2025-009DG","EPOCH":"2026-07-06T17:18:22.506048","CLASSIFICATION_TYPE":"U","MEAN_MOTION":15.04132357,"ECCENTRICITY":0.0004479,"INCLINATION":97.7223,"RA_OF_ASC_NODE":270.3746,"ARG_OF_PERICENTER":83.6436,"MEAN_ANOMALY":276.5299,"EPHEMERIS_TYPE":0,"NORAD_CAT_ID":62711,"ELEMENT_SET_NO":999,"REV_AT_EPOCH":8056,"BSTAR":0.00052678,"MEAN_MOTION_DOT":0.00007246,"MEAN_MOTION_DDOT":0},{"OBJECT_NAME":"LEMUR-2-MYNAMEISJEFF","OBJECT_ID":"2025-009DH","EPOCH":"2026-07-06T17:16:07.692672","CLASSIFICATION_TYPE":"U","MEAN_MOTION":15.04124598,"ECCENTRICITY":0.0003591,"INCLINATION":97.7274,"RA_OF_ASC_NODE":270.7657,"ARG_OF_PERICENTER":117.507,"MEAN_ANOMALY":242.6521,"EPHEMERIS_TYPE":0,"NORAD_CAT_ID":62712,"ELEMENT_SET_NO":999,"REV_AT_EPOCH":8056,"BSTAR":0.00053289,"MEAN_MOTION_DOT":0.00007329,"MEAN_MOTION_DDOT":0}]}
